ONEWEB-0108             
1 48076U 21025AL  23287.93625286  .00000319  00000+0  83889-3 0  9999
2 48076  87.9035 154.4805 0001848  82.1849 277.9490 13.13470642125499
ONEWEB-0169             
1 48077U 21025AM  23287.88969052 -.00000334  00000+0 -95082-3 0  9993
2 48077  87.9039 154.4919 0001895  87.4174 272.7172 13.13471911124142
ONEWEB-0176             
1 48210U 21031A   23287.58702339 -.00000125  00000+0 -37240-3 0  9999
2 48210  87.8946 124.1076 0001623  82.5732 277.5582 13.14503179120013
ONEWEB-0184             
1 48211U 21031B   23287.79000512  .00000005  00000+0 -20806-4 0  9994
2 48211  87.8958 124.0498 0001931  46.6476 313.4814 13.14504305120012
ONEWEB-0179             
1 48212U 21031C   23287.91051187  .00000010  00000+0 -65479-5 0  9995
2 48212  87.8955 124.0210 0001339  87.6687 272.4596 13.14505913120076
ONEWEB-0180             
1 48213U 21031D   23287.79210023  .00000025  00000+0  33954-4 0  9995
2 48213  87.8959 124.0475 0001326  85.1685 274.9597 13.14506241119948
ONEWEB-0218             
1 48214U 21031E   23287.81326709 -.00000171  00000+0 -49617-3 0  9994
2 48214  87.8958 124.0450 0001513  36.8416 323.2818 13.14501238120109
ONEWEB-0209             
1 48215U 21031F   23288.10715384 -.00000193  00000+0 -55377-3 0  9993
2 48215  87.8950 124.0244 0001543  86.5709 273.5597 13.14501263120146
